OBJECT_NAME,OBJECT_ID,EPOCH,MEAN_MOTION,ECCENTRICITY,INCLINATION,RA_OF_ASC_NODE,ARG_OF_PERICENTER,MEAN_ANOMALY,EPHEMERIS_TYPE,CLASSIFICATION_TYPE,NORAD_CAT_ID,ELEMENT_SET_NO,REV_AT_EPOCH,BSTAR,MEAN_MOTION_DOT,MEAN_MOTION_DDOT
LEMUR-1,2014-033AL,2026-06-19T15:38:43.138752,14.85254465,.00495838,97.7880,320.4021,70.7750,289.8820,0,U,40044,999,64583,.18237276E-3,.1544E-4,0
LEMUR-2-GREENBERG,2017-042N,2026-06-19T07:24:32.652864,15.31382691,.0008279,97.3823,350.9230,6.1746,353.9596,0,U,42837,999,48871,.47643551E-3,.14389E-3,0
LEMUR-2-ANDIS,2017-042P,2026-06-19T00:10:20.003808,15.34901289,.0007995,97.3678,350.8131,5.7583,354.3751,0,U,42838,999,48873,.48413824E-3,.16338E-3,0
LEMUR-2-MONSON,2017-042Q,2026-06-19T01:26:36.829536,15.28049146,.00060025,97.4081,350.6452,358.9199,1.2027,0,U,42839,999,48845,.40226899E-3,.10941E-3,0
LEMUR-2-FURIAUS,2017-042R,2026-06-19T05:43:35.626656,15.30308008,.00080577,97.3776,348.8037,62.8731,297.3331,0,U,42840,999,48852,.52299501E-3,.15285E-3,0
LEMUR-2-PETERG,2017-042S,2026-06-19T06:04:53.342688,15.33950101,.00030206,97.3993,355.2862,348.3943,11.7229,0,U,42841,999,48875,.55119099E-3,.18048E-3,0
LEMUR-2-DEMBITZ,2017-042T,2026-06-19T01:29:40.303392,15.30339757,.0006568,97.3827,351.6540,22.4740,337.6787,0,U,42842,999,48863,.44388642E-3,.12966E-3,0
LEMUR-2-ZACHARY,2017-042W,2026-06-19T12:19:35.672448,15.50432723,.00027131,97.3596,2.1994,23.6039,336.5337,0,U,42845,999,48956,.68613456E-3,.39087E-3,0
LEMUR-2-AMANDA-SVANTE,2021-034B,2026-06-19T16:55:33.421152,15.34420039,.00026665,97.5757,249.0573,199.9266,160.1872,0,U,48269,999,28144,.79018706E-3,.26321E-3,0
LEMUR-2-SPECIAL-K,2021-034F,2026-06-19T18:30:38.953152,15.65123092,.00044935,97.5647,257.8169,226.0011,134.0878,0,U,48273,999,28209,.13643745E-2,.136359E-2,0
LEMUR-2-EMBRIONOVIS,2023-084AQ,2026-06-19T08:23:03.937632,15.37593761,.00075874,97.6298,314.6314,311.4054,48.6537,0,U,56970,999,16801,.31328283E-3,.11485E-3,0
LEMUR-2-DEVERILL-M-T,2023-100F,2026-06-19T01:18:16.900992,15.39829166,.00061431,99.4465,209.3513,44.3176,315.8554,0,U,57391,999,16153,.51440121E-3,.20336E-3,0
LEMUR-2-BASS,2023-174D,2026-06-19T17:44:30.770592,15.43165414,.00078781,97.3843,255.4874,154.4133,205.7506,0,U,58259,999,14575,.33292903E-3,.14691E-3,0
LEMUR-2-JK0903EM1407,2023-174CJ,2026-06-19T21:59:59.509536,15.51798489,.00056324,97.3920,261.4638,112.6831,247.5017,0,U,58336,999,14615,.39863722E-3,.23763E-3,0
LEMUR-2-MJR092620,2023-174CN,2026-06-19T17:59:25.313856,15.44954349,.00070833,97.3972,260.8257,110.0654,250.1358,0,U,58340,999,14604,.35115462E-3,.16468E-3,0
LEMUR-2-NIMBUS2000,2024-022A,2026-06-19T06:54:43.146432,15.40057591,.0010377,97.4106,20.3150,109.4188,250.8180,0,U,58899,999,13259,.41357889E-3,.16492E-3,0
LEMUR-2-VALHALLA,2024-022B,2026-06-19T11:30:40.044960,15.39731042,.00108884,97.4104,20.4986,105.1669,255.0782,0,U,58900,999,13262,.35769593E-3,.14098E-3,0
LEMUR-2-CAEL,2024-022E,2026-06-19T11:42:01.351296,15.41038176,.00092468,97.4086,21.4465,90.7126,269.5180,0,U,58903,999,13269,.3612033E-3,.14858E-3,0
LEMUR-2-JOHNNYTRUONG,2024-043BA,2026-06-19T07:55:31.802016,15.60603016,.00048643,97.5384,322.1659,169.6430,190.4928,0,U,59146,999,12837,.43978713E-3,.36354E-3,0
LEMUR-2-TOMATOKECHUP,2024-149D,2026-06-19T18:40:40.089792,15.36077275,.00016752,97.3795,252.8318,171.0165,189.1109,0,U,60471,999,10256,.24976249E-3,.8696E-4,0
LEMUR-2-STELLA,2024-149BT,2026-06-19T17:30:06.253920,15.11852671,.00014666,97.6730,253.1954,96.6271,263.5126,0,U,60533,999,10088,.51284421E-3,.8707E-4,0
LEMUR-2-MARHISYAM,2024-149BW,2026-06-19T21:49:07.072896,15.11306709,.00032961,97.6878,253.8277,112.7491,247.4087,0,U,60536,999,10089,.55111087E-3,.9222E-4,0
LEMUR-2-AHMED-ASRAR,2024-149DN,2026-06-19T22:34:30.628992,15.12762468,.00015725,97.6999,255.9631,36.1504,323.9833,0,U,60576,999,10098,.52845572E-3,.9206E-4,0
LEMUR-2-LLOYD,2024-149DP,2026-06-19T18:15:12.152448,15.09281826,.00050714,97.6745,251.8909,132.7416,227.4240,0,U,60577,999,10078,.53055532E-3,.8394E-4,0
LEMUR-2-SQUIRRELCOMM,2024-149DQ,2026-06-19T17:05:09.801600,15.07173606,.00061077,97.6706,251.6151,53.2688,306.9099,0,U,60578,999,10078,.36888125E-3,.5489E-4,0
LEMUR-2-SIERRINI,2024-149DR,2026-06-19T17:37:43.574304,15.10988959,.00060307,97.6835,253.3380,157.7673,202.3819,0,U,60579,999,10084,.50693097E-3,.8405E-4,0
LEMUR-2-WILSON,2025-009CP,2026-06-19T18:31:35.918400,14.95176120,.00041318,97.7028,249.1912,51.2314,308.9276,0,U,62694,999,7774,.19102146E-3,.2041E-4,0
LEMUR-2-STAR-FOX,2025-009CR,2026-06-19T18:09:33.909408,15.02534850,.00040842,97.6953,252.3469,105.6897,254.4778,0,U,62696,999,7794,.46976283E-3,.6185E-4,0
LEMUR-2-ARIANNA,2025-009CU,2026-06-19T18:07:13.175040,15.02516292,.00044697,97.6891,252.1177,110.9091,249.2612,0,U,62699,999,7794,.46354748E-3,.61E-4,0
